0 THOR ABLESTAR DEB
1 00467U 61015FD  13282.75248964  .00002271  00000-0  31663-2 0  6003
2 00467 066.5600 317.8229 0273105 252.3170 222.2157 13.45205375655914
0 THOR ABLESTAR DEB
1 00467U 61015FD  13285.42837752  .00001980  00000-0  27729-2 0  6014
2 00467 066.5598 311.7110 0273128 250.8252 220.7606 13.45214725656272
0 THOR ABLESTAR DEB
1 00467U 61015FD  13288.47813567  .00002198  00000-0  30678-2 0  6020
2 00467 066.5589 304.7436 0273032 249.1346 229.9531 13.45226055656686
0 THOR ABLESTAR DEB
1 00467U 61015FD  13291.14661544  .00001313  00000-0  18726-2 0  6033
2 00467 066.5585 298.6442 0272513 247.7343 192.7267 13.45235755657045
0 THOR ABLESTAR DEB
1 00467U 61015FD  13293.15250473  .00001306  00000-0  18632-2 0  6040
2 00467 066.5585 294.0610 0272217 246.5942 186.8864 13.45240916657317
0 THOR ABLESTAR DEB
1 00467U 61015FD  13295.16017139  .00001194  00000-0  17127-2 0  6057
2 00467 066.5584 289.4746 0271867 245.4515 189.6910 13.45246435657582
